PROGRESS-MS 32          
1 65586U 25204A   25327.18992837  .00013668  00000+0  25570-3 0  9994
2 65586  51.6318 239.2442 0003903 158.2569 201.8586 15.49010020   274
CYGNUS NG-23            
1 65616U 25208A   25327.18992837  .00013668  00000+0  25570-3 0  9992
2 65616  51.6318 239.2442 0003903 158.2569 201.8586 15.49010020   223
DRAGONFLY               
1 65729U 98067XH  25327.17694853  .00129782  00000+0  12573-2 0  9999
2 65729  51.6276 235.4085 0006016 168.3980 191.7155 15.65438828 10092
1998-067XJ              
1 65730U 98067XJ  25326.95525563  .00717932  21009-3  25530-2 0  9990
2 65730  51.6202 233.1391 0012367 170.2831 189.8415 15.88239068 10100
1998-067XK              
1 65731U 98067XK  25327.17638647  .00085352  00000+0  96573-3 0  9998
2 65731  51.6300 236.1610 0006061 143.5803 216.5604 15.61679765 10081
RSP-03                  
1 65732U 98067XL  25327.14572961  .00105203  00000+0  11062-2 0  9999
2 65732  51.6289 235.9525 0006847 146.5146 213.6282 15.63463384 10096
GHS-01                  
1 65733U 98067XM  25327.15431610  .00155021  00000+0  14104-2 0  9999
2 65733  51.6299 235.2617 0006563 167.3148 192.8014 15.66905655 10109
YOTSUBA-KULOVER         
1 65941U 98067XN  25327.14733294  .00065728  00000+0  91124-3 0  9994
2 65941  51.6309 238.2129 0002450 116.5911 243.5332 15.56437686  6800
BOTAN                   
1 65942U 98067XP  25327.12196983  .00078973  00000+0  10128-2 0  9991
2 65942  51.6299 238.0444 0004693 122.4303 237.7144 15.58437580  6800
E-KAGAKU-1              
1 65943U 98067XQ  25327.01859538  .00055364  00000+0  77066-3 0  9996
2 65943  51.6318 238.8550 0004016 102.8578 257.2863 15.56396401  6780
HRC MONOBLOCK CAMERA    
1 66052U 98067XR  25327.28509938  .00037061  00000+0  59950-3 0  9999
2 66052  51.6314 238.3786 0004670 106.6527 253.4976 15.52452987  5810
HTV-X1                  
1 66174U 25241A   25327.18992837  .00013668  00000+0  25570-3 0  9999
2 66174  51.6318 239.2442 0003903 158.2569 201.8586 15.49010020  1459
